IRIDIUM 150             
1 43257U 18030J   25079.65276737  .00000602  00000+0  20773-3 0  9998
2 43257  86.3942 120.0968 0002012  91.3480 268.7947 14.34219616365151
IRIDIUM 143             
1 43258U 18030K   25080.19188977  .00000241  00000+0  79050-4 0  9990
2 43258  86.3935 119.9453 0002015  96.7474 263.3951 14.34218545365195
IRIDIUM 161             
1 43478U 18047C   25079.88396561  .00000383  00000+0  10772-3 0  9998
2 43478  86.4429 277.8746 0002106  90.7629 269.3813 14.43284094359754
IRIDIUM 152             
1 43479U 18047D   25079.95530263  .00000050  00000+0  10905-4 0  9996
2 43479  86.3904 277.7046 0002185  88.7777 271.3669 14.34218000357532
IRIDIUM 147             
1 43480U 18047E   25079.61280268  .00000024  00000+0  16790-5 0  9998
2 43480  86.3907 277.8452 0002224  94.7196 265.4254 14.34217911357472
IRIDIUM 110             
1 43481U 18047F   25079.61914619  .00000041  00000+0  74521-5 0  9998
2 43481  86.3909 277.9229 0002558  90.9613 269.1876 14.34217935357466
IRIDIUM 162             
1 43482U 18047G   25079.94699864  .00000384  00000+0  10805-3 0  9990
2 43482  86.4428 277.7445 0002332  82.4835 277.6631 14.43278642359753
IRIDIUM 160             
1 43569U 18061A   25079.42544328  .00000291  00000+0  96891-4 0  9996
2 43569  86.3930 246.3521 0002272  95.0619 265.0836 14.34218972348336
